[{"OBJECT_NAME":"ONEWEB-0212","OBJECT_ID":"2021-045AA","EPOCH":"2025-07-30T20:49:28.873920","MEAN_MOTION":13.15549345,"ECCENTRICITY":0.000185,"INCLINATION":87.9078,"RA_OF_ASC_NODE":323.2552,"ARG_OF_PERICENTER":98.3053,"MEAN_ANOMALY":261.8287,"EPHEMERIS_TYPE":0,"CLASSIFICATION_TYPE":"U","NORAD_CAT_ID":48791,"ELEMENT_SET_NO":999,"REV_AT_EPOCH":20332,"BSTAR":-0.00025312,"MEAN_MOTION_DOT":-8.2e-7,"MEAN_MOTION_DDOT":0},{"OBJECT_NAME":"ONEWEB-0227","OBJECT_ID":"2021-045AB","EPOCH":"2025-07-30T20:48:19.249344","MEAN_MOTION":13.15548112,"ECCENTRICITY":0.0001968,"INCLINATION":87.908,"RA_OF_ASC_NODE":323.2751,"ARG_OF_PERICENTER":94.6414,"MEAN_ANOMALY":265.4941,"EPHEMERIS_TYPE":0,"CLASSIFICATION_TYPE":"U","NORAD_CAT_ID":48792,"ELEMENT_SET_NO":999,"REV_AT_EPOCH":20326,"BSTAR":-0.0002881,"MEAN_MOTION_DOT":-9.6e-7,"MEAN_MOTION_DDOT":0},{"OBJECT_NAME":"ONEWEB-0226","OBJECT_ID":"2021-045AC","EPOCH":"2025-07-31T00:18:14.690592","MEAN_MOTION":13.155498,"ECCENTRICITY":0.0002277,"INCLINATION":87.9084,"RA_OF_ASC_NODE":323.2504,"ARG_OF_PERICENTER":94.6943,"MEAN_ANOMALY":265.4447,"EPHEMERIS_TYPE":0,"CLASSIFICATION_TYPE":"U","NORAD_CAT_ID":48793,"ELEMENT_SET_NO":999,"REV_AT_EPOCH":20324,"BSTAR":2.5698e-5,"MEAN_MOTION_DOT":2.2e-7,"MEAN_MOTION_DDOT":0},{"OBJECT_NAME":"ONEWEB-0224","OBJECT_ID":"2021-045AD","EPOCH":"2025-07-30T19:46:44.152032","MEAN_MOTION":13.15546694,"ECCENTRICITY":0.0001542,"INCLINATION":87.9079,"RA_OF_ASC_NODE":323.3253,"ARG_OF_PERICENTER":68.5943,"MEAN_ANOMALY":291.5351,"EPHEMERIS_TYPE":0,"CLASSIFICATION_TYPE":"U","NORAD_CAT_ID":48794,"ELEMENT_SET_NO":999,"REV_AT_EPOCH":20202,"BSTAR":6.4912e-5,"MEAN_MOTION_DOT":3.7e-7,"MEAN_MOTION_DDOT":0},{"OBJECT_NAME":"ONEWEB-0190","OBJECT_ID":"2021-045AF","EPOCH":"2025-07-31T02:53:24.374400","MEAN_MOTION":13.15547579,"ECCENTRICITY":0.0002484,"INCLINATION":87.9085,"RA_OF_ASC_NODE":323.2392,"ARG_OF_PERICENTER":83.4372,"MEAN_ANOMALY":276.7041,"EPHEMERIS_TYPE":0,"CLASSIFICATION_TYPE":"U","NORAD_CAT_ID":48796,"ELEMENT_SET_NO":999,"REV_AT_EPOCH":20327,"BSTAR":-1.7467e-5,"MEAN_MOTION_DOT":6.0e-8,"MEAN_MOTION_DDOT":0},{"OBJECT_NAME":"ONEWEB-0236","OBJECT_ID":"2021-045AG","EPOCH":"2025-07-31T01:28:58.243872","MEAN_MOTION":13.15547638,"ECCENTRICITY":0.0001752,"INCLINATION":87.9092,"RA_OF_ASC_NODE":323.2603,"ARG_OF_PERICENTER":98.4166,"MEAN_ANOMALY":261.7163,"EPHEMERIS_TYPE":0,"CLASSIFICATION_TYPE":"U","NORAD_CAT_ID":48797,"ELEMENT_SET_NO":999,"REV_AT_EPOCH":20315,"BSTAR":0.00054662,"MEAN_MOTION_DOT":2.19e-6,"MEAN_MOTION_DDOT":0},{"OBJECT_NAME":"ONEWEB-0248","OBJECT_ID":"2021-045AH","EPOCH":"2025-07-31T05:26:16.423872","MEAN_MOTION":13.15550462,"ECCENTRICITY":0.0001964,"INCLINATION":87.9083,"RA_OF_ASC_NODE":323.1823,"ARG_OF_PERICENTER":78.2761,"MEAN_ANOMALY":281.8589,"EPHEMERIS_TYPE":0,"CLASSIFICATION_TYPE":"U","NORAD_CAT_ID":48798,"ELEMENT_SET_NO":999,"REV_AT_EPOCH":20333,"BSTAR":0.00041031,"MEAN_MOTION_DOT":1.67e-6,"MEAN_MOTION_DDOT":0},{"OBJECT_NAME":"ONEWEB-0225","OBJECT_ID":"2021-045AJ","EPOCH":"2025-07-30T20:50:35.215296","MEAN_MOTION":13.15546631,"ECCENTRICITY":0.000234,"INCLINATION":87.9088,"RA_OF_ASC_NODE":323.2848,"ARG_OF_PERICENTER":85.378,"MEAN_ANOMALY":274.7618,"EPHEMERIS_TYPE":0,"CLASSIFICATION_TYPE":"U","NORAD_CAT_ID":48799,"ELEMENT_SET_NO":999,"REV_AT_EPOCH":20217,"BSTAR":-0.00027192,"MEAN_MOTION_DOT":-9.0e-7,"MEAN_MOTION_DDOT":0},{"OBJECT_NAME":"ONEWEB-0216","OBJECT_ID":"2021-045AL","EPOCH":"2025-07-30T20:20:56.494176","MEAN_MOTION":13.15548136,"ECCENTRICITY":0.0002122,"INCLINATION":87.9079,"RA_OF_ASC_NODE":323.2851,"ARG_OF_PERICENTER":100.4031,"MEAN_ANOMALY":259.7338,"EPHEMERIS_TYPE":0,"CLASSIFICATION_TYPE":"U","NORAD_CAT_ID":48801,"ELEMENT_SET_NO":999,"REV_AT_EPOCH":20205,"BSTAR":0.00014843,"MEAN_MOTION_DOT":6.9e-7,"MEAN_MOTION_DDOT":0},{"OBJECT_NAME":"ONEWEB-0239","OBJECT_ID":"2021-045AM","EPOCH":"2025-07-30T20:27:47.721888","MEAN_MOTION":13.15547465,"ECCENTRICITY":0.000203,"INCLINATION":87.9086,"RA_OF_ASC_NODE":323.2965,"ARG_OF_PERICENTER":74.3545,"MEAN_ANOMALY":285.7809,"EPHEMERIS_TYPE":0,"CLASSIFICATION_TYPE":"U","NORAD_CAT_ID":48802,"ELEMENT_SET_NO":999,"REV_AT_EPOCH":20209,"BSTAR":0.0001831,"MEAN_MOTION_DOT":8.2e-7,"MEAN_MOTION_DDOT":0},{"OBJECT_NAME":"ONEWEB-0250","OBJECT_ID":"2021-060B","EPOCH":"2025-07-31T04:32:50.545824","MEAN_MOTION":13.25810615,"ECCENTRICITY":0.0001383,"INCLINATION":87.9047,"RA_OF_ASC_NODE":291.5725,"ARG_OF_PERICENTER":71.3228,"MEAN_ANOMALY":288.8058,"EPHEMERIS_TYPE":0,"CLASSIFICATION_TYPE":"U","NORAD_CAT_ID":48968,"ELEMENT_SET_NO":999,"REV_AT_EPOCH":19897,"BSTAR":0.00013525,"MEAN_MOTION_DOT":7.2e-7,"MEAN_MOTION_DDOT":0},{"OBJECT_NAME":"ONEWEB-0254","OBJECT_ID":"2021-060F","EPOCH":"2025-07-30T22:03:24.789888","MEAN_MOTION":13.16595247,"ECCENTRICITY":0.0002014,"INCLINATION":87.905,"RA_OF_ASC_NODE":292.8013,"ARG_OF_PERICENTER":85.4303,"MEAN_ANOMALY":274.7058,"EPHEMERIS_TYPE":0,"CLASSIFICATION_TYPE":"U","NORAD_CAT_ID":48972,"ELEMENT_SET_NO":999,"REV_AT_EPOCH":19731,"BSTAR":0.00032115,"MEAN_MOTION_DOT":1.36e-6,"MEAN_MOTION_DDOT":0}]
