ONEWEB-0212             
1 48791U 21045AA  25211.86769530 -.00000082  00000+0 -25312-3 0  9993
2 48791  87.9078 323.2552 0001850  98.3053 261.8287 13.15549345203328
ONEWEB-0227             
1 48792U 21045AB  25211.86688946 -.00000096  00000+0 -28810-3 0  9996
2 48792  87.9080 323.2751 0001968  94.6414 265.4941 13.15548112203264
ONEWEB-0226             
1 48793U 21045AC  25212.01267003  .00000022  00000+0  25698-4 0  9991
2 48793  87.9084 323.2504 0002277  94.6943 265.4447 13.15549800203240
ONEWEB-0224             
1 48794U 21045AD  25211.82412213  .00000037  00000+0  64912-4 0  9993
2 48794  87.9079 323.3253 0001542  68.5943 291.5351 13.15546694202028
ONEWEB-0190             
1 48796U 21045AF  25212.12042100  .00000006  00000+0 -17467-4 0  9993
2 48796  87.9085 323.2392 0002484  83.4372 276.7041 13.15547579203270
ONEWEB-0236             
1 48797U 21045AG  25212.06178523  .00000219  00000+0  54662-3 0  9998
2 48797  87.9092 323.2603 0001752  98.4166 261.7163 13.15547638203150
ONEWEB-0248             
1 48798U 21045AH  25212.22657898  .00000167  00000+0  41031-3 0  9992
2 48798  87.9083 323.1823 0001964  78.2761 281.8589 13.15550462203330
ONEWEB-0225             
1 48799U 21045AJ  25211.86846314 -.00000090  00000+0 -27192-3 0  9994
2 48799  87.9088 323.2848 0002340  85.3780 274.7618 13.15546631202171
ONEWEB-0216             
1 48801U 21045AL  25211.84787609  .00000069  00000+0  14843-3 0  9990
2 48801  87.9079 323.2851 0002122 100.4031 259.7338 13.15548136202056
ONEWEB-0239             
1 48802U 21045AM  25211.85263567  .00000082  00000+0  18310-3 0  9992
2 48802  87.9086 323.2965 0002030  74.3545 285.7809 13.15547465202098
ONEWEB-0250             
1 48968U 21060B   25212.18947391  .00000072  00000+0  13525-3 0  9995
2 48968  87.9047 291.5725 0001383  71.3228 288.8058 13.25810615198976
ONEWEB-0254             
1 48972U 21060F   25211.91903692  .00000136  00000+0  32115-3 0  9993
2 48972  87.9050 292.8013 0002014  85.4303 274.7058 13.16595247197313
